[Satellite]
VERSION=1.1
NAME=RAPIDEYE 1
NICKNAME=RAPIDEYE 1
TLE1=1 33314U 08040C   15055.54949637  .00000815  00000-0  11458-3 0  9995
TLE2=2 33314  97.8726 144.1180 0023371 220.0327 139.9168 14.79879314350587
